{
  "norad_id": 44744,
  "name": "STARLINK-1039",
  "history": [
    {
      "epoch": "2026-03-28T09:20:54.377664Z",
      "apogee_km": 496.9821834826289,
      "perigee_km": 495.5048791064528,
      "latitude_deg": -2.333324014581942e-05,
      "longitude_deg": 163.0038465079228,
      "height_km": 496.6134333437285,
      "semi_major_axis_km": 6874.380531294541,
      "eccentricity": 0.00010745,
      "inclination_deg": 53.0588,
      "raan_deg": 129.0411,
      "arg_perigee_deg": 314.432,
      "mean_anomaly_deg": 45.6588,
      "mean_motion_rev_day": 15.23184139
    },
    {
      "epoch": "2026-03-30T05:26:21.933600Z",
      "apogee_km": 496.5412106843187,
      "perigee_km": 494.95293103090717,
      "latitude_deg": 4.383474145317783e-05,
      "longitude_deg": -148.63577165712184,
      "height_km": 495.9482922892312,
      "semi_major_axis_km": 6873.884070857613,
      "eccentricity": 0.00011553,
      "inclination_deg": 53.059,
      "raan_deg": 120.577,
      "arg_perigee_deg": 329.7005,
      "mean_anomaly_deg": 30.3925,
      "mean_motion_rev_day": 15.23349158
    },
    {
      "epoch": "2026-03-30T07:00:50.435424Z",
      "apogee_km": 496.50079681587795,
      "perigee_km": 494.94867883547795,
      "latitude_deg": 5.731372936550165e-05,
      "longitude_deg": -172.62128496231747,
      "height_km": 495.9303165744454,
      "semi_major_axis_km": 6873.861737825678,
      "eccentricity": 0.0001129,
      "inclination_deg": 53.059,
      "raan_deg": 120.2749,
      "arg_perigee_deg": 331.3831,
      "mean_anomaly_deg": 28.7104,
      "mean_motion_rev_day": 15.23356582
    },
    {
      "epoch": "2026-03-31T11:21:18.434592Z",
      "apogee_km": 496.068574741631,
      "perigee_km": 494.57978305028246,
      "latitude_deg": -8.159401919014954e-06,
      "longitude_deg": 115.65477629403773,
      "height_km": 495.5045503102797,
      "semi_major_axis_km": 6873.461178895956,
      "eccentricity": 0.0001083,
      "inclination_deg": 53.0589,
      "raan_deg": 114.8316,
      "arg_perigee_deg": 341.5875,
      "mean_anomaly_deg": 18.5082,
      "mean_motion_rev_day": 15.23489747
    }
  ]
}